NORAD_CAT_ID,OBJECT_NAME,OBJECT_TYPE,EPOCH,MEAN_MOTION,ECCENTRICITY,INCLINATION,RA_OF_ASC_NODE,ARG_OF_PERICENTER,MEAN_ANOMALY,BSTAR,MEAN_MOTION_DOT,MEAN_MOTION_DDOT,TLE_LINE0,TLE_LINE1,TLE_LINE2,SEMIMAJOR_AXIS,PERIOD,APOGEE,PERIGEE,DECAYED
55755.0,STARLINK-5619,PAYLOAD,2023-09-17 13:20:50,14.98325104,0.0003215,70.0007,3.9365,270.8629,89.2162,0.00014978,1.694e-05,0.0,0 STARLINK-5619,1 55755U 23028Q   23260.55613641  .00001694  00000-0  14978-3 0  9998,2 55755  70.0007   3.9365 0003215 270.8629  89.2162 14.98325104 30619,6950.208,96.107,574.308,569.839,0.0
55755.0,STARLINK-5619,PAYLOAD,2023-09-18 00:33:46,14.98330346,0.0003056,70.002,2.7584,273.1615,86.9194,0.00013591,1.529e-05,0.0,0 STARLINK-5619,1 55755U 23028Q   23261.02345421  .00001529  00000-0  13591-3 0  9996,2 55755  70.0020   2.7584 0003056 273.1615  86.9194 14.98330346 30688,6950.192,96.107,574.181,569.933,0.0
55755.0,STARLINK-5619,PAYLOAD,2023-09-18 13:22:51,14.98327778,0.0003065,70.0007,1.4107,270.8353,89.2455,1.8687e-05,1.3e-06,0.0,0 STARLINK-5619,1 55755U 23028Q   23261.55753900  .00000130  00000-0  18687-4 0  9998,2 55755  70.0007   1.4107 0003065 270.8353  89.2455 14.98327778 30763,6950.2,96.107,574.195,569.935,0.0
55755.0,STARLINK-5619,PAYLOAD,2023-09-18 16:35:07,14.98329705,0.0002914,70.0009,1.0741,267.997,92.0856,4.9585e-05,4.99e-06,0.0,0 STARLINK-5619,1 55755U 23028Q   23261.69105719  .00000499  00000-0  49585-4 0  9991,2 55755  70.0009   1.0741 0002914 267.9970  92.0856 14.98329705 30780,6950.194,96.107,574.084,570.034,0.0
55755.0,STARLINK-5619,PAYLOAD,2023-09-19 00:35:47,14.98333967,0.0003038,70.0009,0.2326,271.0521,89.029,1.793e-05,1.21e-06,0.0,0 STARLINK-5619,1 55755U 23028Q   23262.02485467  .00000121  00000-0  17930-4 0  9991,2 55755  70.0009   0.2326 0003038 271.0521  89.0290 14.98333967 30835,6950.181,96.107,574.157,569.934,0.0
55755.0,STARLINK-5619,PAYLOAD,2023-09-19 16:37:06,14.98346665,0.0002963,70.0008,358.5492,269.7029,90.379,0.00018801,2.152e-05,0.0,0 STARLINK-5619,1 55755U 23028Q   23262.69243889  .00002152  00000-0  18801-3 0  9997,2 55755  70.0008 358.5492 0002963 269.7029  90.3790 14.98346665 30930,6950.141,96.106,574.066,569.947,0.0
55755.0,STARLINK-5619,PAYLOAD,2023-09-20 10:14:38,14.98303938,0.0002923,70.0006,356.6978,271.48,88.6024,-0.00021703,-2.68e-05,0.0,0 STARLINK-5619,1 55755U 23028Q   23263.42683736 -.00002680  00000-0 -21703-3 0  9991,2 55755  70.0006 356.6978 0002923 271.4800  88.6024 14.98303938 31048,6950.273,96.109,574.17,570.107,0.0
55755.0,STARLINK-5619,PAYLOAD,2023-09-20 13:26:54,14.98307612,0.0003205,70.0004,356.3619,274.9654,85.1139,-0.00019843,-2.458e-05,0.0,0 STARLINK-5619,1 55755U 23028Q   23263.56035655 -.00002458  00000-0 -19843-3 0  9992,2 55755  70.0004 356.3619 0003205 274.9654  85.1139 14.98307612 31068,6950.262,96.108,574.355,569.9,0.0
55755.0,STARLINK-5619,PAYLOAD,2023-09-20 16:39:10,14.98309369,0.0003057,70.0005,356.025,274.3271,85.7538,-0.00016014,-2.002e-05,0.0,0 STARLINK-5619,1 55755U 23028Q   23263.69387643 -.00002002  00000-0 -16014-3 0  9995,2 55755  70.0005 356.0250 0003057 274.3271  85.7538 14.98309369 31083,6950.257,96.108,574.246,569.997,0.0
55755.0,STARLINK-5619,PAYLOAD,2023-09-21 10:16:39,14.98326859,0.0003138,70.0001,354.1729,274.7196,85.3604,-6.3509e-05,-8.51e-06,0.0,0 STARLINK-5619,1 55755U 23028Q   23264.42822944 -.00000851  00000-0 -63509-4 0  9997,2 55755  70.0001 354.1729 0003138 274.7196  85.3604 14.98326859 31194,6950.203,96.107,574.249,569.887,0.0
55755.0,STARLINK-5619,PAYLOAD,2023-09-21 13:28:54,14.98330488,0.0003154,70.0,353.8367,272.2034,87.8764,-3.1955e-05,-4.74e-06,0.0,0 STARLINK-5619,1 55755U 23028Q   23264.56174710 -.00000474  00000-0 -31955-4 0  9994,2 55755  70.0000 353.8367 0003154 272.2034  87.8764 14.98330488 31219,6950.191,96.107,574.248,569.864,0.0
55755.0,STARLINK-5619,PAYLOAD,2023-09-21 15:05:03,14.98327215,0.0003193,70.0012,353.6685,273.4899,86.5895,4.3763e-05,4.29e-06,0.0,0 STARLINK-5619,1 55755U 23028Q   23264.62850713  .00000429  00000-0  43763-4 0  9993,2 55755  70.0012 353.6685 0003193 273.4899  86.5895 14.98327215 31224,6950.202,96.107,574.286,569.847,0.0
55755.0,STARLINK-5619,PAYLOAD,2023-09-21 23:05:43,14.98336184,0.0003298,70.0011,352.8264,276.5427,83.5357,0.00020423,2.345e-05,0.0,0 STARLINK-5619,1 55755U 23028Q   23264.96230434  .00002345  00000-0  20423-3 0  9998,2 55755  70.0011 352.8264 0003298 276.5427  83.5357 14.98336184 31274,6950.174,96.107,574.331,569.747,0.0
55755.0,STARLINK-5619,PAYLOAD,2023-09-22 13:30:55,14.98364609,0.0003318,70.0014,351.3116,278.7737,81.3047,0.0015127,0.00018019,0.0,0 STARLINK-5619,1 55755U 23028Q   23265.56314238  .00018019  00000-0  15127-2 0  9999,2 55755  70.0014 351.3116 0003318 278.7737  81.3047 14.98364609 31363,6950.086,96.105,574.257,569.645,0.0
55755.0,STARLINK-5619,PAYLOAD,2023-09-22 15:07:03,14.98367779,0.0003321,70.0014,351.1432,278.8495,81.2288,0.0015557,0.00018537,0.0,0 STARLINK-5619,1 55755U 23028Q   23265.62990072  .00018537  00000-0  15557-2 0  9994,2 55755  70.0014 351.1432 0003321 278.8495  81.2288 14.98367779 31376,6950.076,96.105,574.249,569.633,0.0
55755.0,STARLINK-5619,PAYLOAD,2023-09-23 11:56:47,14.98350555,0.0003162,70.002,348.9551,269.9912,90.0884,0.00015553,1.764e-05,0.0,0 STARLINK-5619,1 55755U 23028Q   23266.49777153  .00001764  00000-0  15553-3 0  9994,2 55755  70.0020 348.9551 0003162 269.9912  90.0884 14.98350555 31506,6950.129,96.106,574.192,569.797,0.0
55755.0,STARLINK-5619,PAYLOAD,2023-09-23 13:32:55,14.98346273,0.0002923,70.0024,348.7867,267.568,92.5144,0.00010527,1.164e-05,0.0,0 STARLINK-5619,1 55755U 23028Q   23266.56453284  .00001164  00000-0  10527-3 0  9998,2 55755  70.0024 348.7867 0002923 267.5680  92.5144 14.98346273 31517,6950.143,96.106,574.039,569.976,0.0
55755.0,STARLINK-5619,PAYLOAD,2023-09-23 15:09:03,14.98343897,0.0002798,70.0024,348.6192,267.0757,93.0082,0.00013909,1.568e-05,0.0,0 STARLINK-5619,1 55755U 23028Q   23266.63129379  .00001568  00000-0  13909-3 0  9996,2 55755  70.0024 348.6192 0002798 267.0757  93.0082 14.98343897 31524,6950.15,96.106,573.96,570.07,0.0
55755.0,STARLINK-5619,PAYLOAD,2023-09-24 10:22:41,14.98301381,0.0003163,70.0009,346.5993,263.4734,96.6065,0.000679,8.012e-05,0.0,0 STARLINK-5619,1 55755U 23028Q   23267.43242758  .00008012  00000-0  67900-3 0  9993,2 55755  70.0009 346.5993 0003163 263.4734  96.6065 14.98301381 31640,6950.281,96.109,574.345,569.948,0.0
55755.0,STARLINK-5619,PAYLOAD,2023-09-24 13:34:56,14.98342324,0.000284,70.0007,346.2625,264.3708,95.7127,-3.538e-05,-5.15e-06,0.0,0 STARLINK-5619,1 55755U 23028Q   23267.56593078 -.00000515  00000-0 -35380-4 0  9991,2 55755  70.0007 346.2625 0002840 264.3708  95.7127 14.98342324 31662,6950.155,96.106,573.994,570.046,0.0
55755.0,STARLINK-5619,PAYLOAD,2023-09-24 15:11:04,14.98343754,0.0002903,70.0006,346.0942,266.7977,93.285,-3.9915e-05,-5.69e-06,0.0,0 STARLINK-5619,1 55755U 23028Q   23267.63268933 -.00000569  00000-0 -39915-4 0  9995,2 55755  70.0006 346.0942 0002903 266.7977  93.2850 14.98343754 31670,6950.15,96.106,574.033,569.998,0.0
55755.0,STARLINK-5619,PAYLOAD,2023-09-25 08:48:33,14.98328659,0.0002836,70.0014,344.2436,261.2224,98.8614,1.7408e-05,1.15e-06,0.0,0 STARLINK-5619,1 55755U 23028Q   23268.36705462  .00000115  00000-0  17408-4 0  9997,2 55755  70.0014 344.2436 0002836 261.2224  98.8614 14.98328659 31785,6950.197,96.107,574.033,570.091,0.0
55755.0,STARLINK-5619,PAYLOAD,2023-09-25 13:36:57,14.98329845,0.0002959,70.0013,343.7399,265.7049,94.3772,3.63e-05,3.4e-06,0.0,0 STARLINK-5619,1 55755U 23028Q   23268.56733394  .00000340  00000-0  36300-4 0  9996,2 55755  70.0013 343.7399 0002959 265.7049  94.3772 14.98329845 31814,6950.193,96.107,574.115,570.002,0.0
55755.0,STARLINK-5619,PAYLOAD,2023-09-25 15:13:05,14.98330039,0.0002963,70.0013,343.5714,265.9995,94.0825,3.8037e-05,3.61e-06,0.0,0 STARLINK-5619,1 55755U 23028Q   23268.63409381  .00000361  00000-0  38037-4 0  9992,2 55755  70.0013 343.5714 0002963 265.9995  94.0825 14.98330039 31824,6950.193,96.107,574.117,569.998,0.0
55755.0,STARLINK-5619,PAYLOAD,2023-09-26 10:26:42,14.98327295,0.0002771,70.0007,341.55,262.1476,97.9368,4.4089e-05,4.33e-06,0.0,0 STARLINK-5619,1 55755U 23028Q   23269.43521590  .00000433  00000-0  44089-4 0  9992,2 55755  70.0007 341.5500 0002771 262.1476  97.9368 14.98327295 31945,6950.201,96.107,573.992,570.14,0.0
55755.0,STARLINK-5619,PAYLOAD,2023-09-26 13:38:58,14.98330192,0.0002803,70.0009,341.2141,263.0798,97.0042,5.6036e-05,5.76e-06,0.0,0 STARLINK-5619,1 55755U 23028Q   23269.56873388  .00000576  00000-0  56036-4 0  9994,2 55755  70.0009 341.2141 0002803 263.0798  97.0042 14.98330192 31960,6950.192,96.107,574.005,570.109,0.0
55755.0,STARLINK-5619,PAYLOAD,2023-09-26 15:15:06,14.98330737,0.0002793,70.0007,341.0455,262.5903,97.4939,8.765e-05,9.53e-06,0.0,0 STARLINK-5619,1 55755U 23028Q   23269.63549304  .00000953  00000-0  87650-4 0  9995,2 55755  70.0007 341.0455 0002793 262.5903  97.4939 14.98330737 31979,6950.191,96.107,573.997,570.114,0.0
55755.0,STARLINK-5619,PAYLOAD,2023-09-27 08:52:35,14.98333346,0.0002844,70.0002,339.1929,266.3134,93.77,0.00010806,1.197e-05,0.0,0 STARLINK-5619,1 55755U 23028Q   23270.36985079  .00001197  00000-0  10806-3 0  9999,2 55755  70.0002 339.1929 0002844 266.3134  93.7700 14.98333346 32080,6950.183,96.107,574.024,570.071,0.0
55755.0,STARLINK-5619,PAYLOAD,2023-09-27 12:04:51,14.98334716,0.0002825,70.0002,338.8562,266.3807,93.7029,0.00012134,1.355e-05,0.0,0 STARLINK-5619,1 55755U 23028Q   23270.50336951  .00001355  00000-0  12134-3 0  9996,2 55755  70.0002 338.8562 0002825 266.3807  93.7029 14.98334716 32104,6950.178,96.107,574.007,570.08,0.0
55755.0,STARLINK-5619,PAYLOAD,2023-09-28 12:06:52,14.98325914,0.0002789,70.0001,336.331,255.6138,104.4711,1.8708e-05,1.3e-06,0.0,0 STARLINK-5619,1 55755U 23028Q   23271.50477683  .00000130  00000-0  18708-4 0  9999,2 55755  70.0001 336.3310 0002789 255.6138 104.4711 14.98325914 32258,6950.206,96.107,574.009,570.132,0.0
